{
    "links": {
        "self": "http://www.neowsapp.com/rest/v1/neo/54051107?api_key=iIulBulltgU6a56xZRHN4H3l9WmuAYTsLGpBGhQ2"
    },
    "id": "54051107",
    "neo_reference_id": "54051107",
    "name": "(2020 PD5)",
    "designation": "2020 PD5",
    "nasa_jpl_url": "http://ssd.jpl.nasa.gov/sbdb.cgi?sstr=54051107",
    "absolute_magnitude_h": 20.376,
    "estimated_diameter": {
        "kilometers": {
            "estimated_diameter_min": 0.223539861,
            "estimated_diameter_max": 0.4998503249
        },
        "meters": {
            "estimated_diameter_min": 223.5398610316,
            "estimated_diameter_max": 499.8503249475
        },
        "miles": {
            "estimated_diameter_min": 0.138901187,
            "estimated_diameter_max": 0.3105924963
        },
        "feet": {
            "estimated_diameter_min": 733.3985176669,
            "estimated_diameter_max": 1639.9289401008
        }
    },
    "is_potentially_hazardous_asteroid": false,
    "close_approach_data": [
        {
            "close_approach_date": "2020-05-14",
            "close_approach_date_full": "2020-May-14 22:52",
            "epoch_date_close_approach": 1589496720000,
            "relative_velocity": {
                "kilometers_per_second": "18.9966791306",
                "kilometers_per_hour": "68388.0448703303",
                "miles_per_hour": "42493.6715473449"
            },
            "miss_distance": {
                "astronomical": "0.3704162866",
                "lunar": "144.0919354874",
                "kilometers": "55413487.488669542",
                "miles": "34432344.4764299996"
            },
            "orbiting_body": "Earth"
        }
    ],
    "orbital_data": {
        "orbit_id": "1",
        "orbit_determination_date": "2020-08-17 05:12:07",
        "first_observation_date": "2020-08-14",
        "last_observation_date": "2020-08-17",
        "data_arc_in_days": 3,
        "observations_used": 14,
        "orbit_uncertainty": "9",
        "minimum_orbit_intersection": ".164726",
        "jupiter_tisserand_invariant": "3.142",
        "epoch_osculation": "2459077.5",
        "eccentricity": ".757349958605588",
        "semi_major_axis": "2.269715015736028",
        "inclination": "10.09249621873285",
        "ascending_node_longitude": "22.89280898805412",
        "orbital_period": "1248.979824741424",
        "perihelion_distance": ".5507464425218657",
        "perihelion_argument": "163.2619675898463",
        "aphelion_distance": "3.988683588950189",
        "perihelion_time": "2458961.366849054668",
        "mean_anomaly": "33.47366667750218",
        "mean_motion": ".288235240368699",
        "equinox": "J2000",
        "orbit_class": {
            "orbit_class_type": "APO",
            "orbit_class_description": "Near-Earth asteroid orbits which cross the Earth’s orbit similar to that of 1862 Apollo",
            "orbit_class_range": "a (semi-major axis) > 1.0 AU; q (perihelion) < 1.017 AU"
        }
    },
    "is_sentry_object": false
}